SNUSAT-2                
1 43782U 18099AA  26065.11220800  .00009455  00000+0  44044-3 0  9995
2 43782  97.4198 120.1356 0009159 300.1895  59.8432 15.20081838397367
SNUGLITE                
1 43784U 18099AC  26065.06359098  .00013082  00000+0  53119-3 0  9997
2 43784  97.4008 120.4673 0001384 306.9456  53.1654 15.24713538397594
ITASAT                  
1 43786U 18099AE  26065.08226506  .00008451  00000+0  42272-3 0  9990
2 43786  97.4167 118.6838 0012563 359.4146   0.7071 15.17603175397266
EAGLET-I                
1 43790U 18099AJ  26065.11327965  .00004436  00000+0  26130-3 0  9994
2 43790  97.4373 117.5014 0010858 350.1736   9.9281 15.12061979396754
ESEO                    
1 43792U 18099AL  26065.06238159  .00002901  00000+0  21459-3 0  9990
2 43792  97.4107 106.8163 0011445 330.0935  29.9636 15.03891125396309
THEA                    
1 43796U 18099AQ  26065.14969386  .00021082  00000+0  69905-3 0  9995
2 43796  97.4550 134.0703 0006656 291.5601  68.4930 15.31268454396902
ASTROCAST 0.1           
1 43798U 18099AS  26065.16621828  .00033010  00000+0  75579-3 0  9993
2 43798  97.4465 140.9450 0005370 222.3358 137.7476 15.42709353398511
JY1SAT (JO-97)          
1 43803U 18099AX  26065.15516209  .00018100  00000+0  62231-3 0  9999
2 43803  97.4257 127.8319 0004641 273.9250  86.1459 15.30136509397856
SUOMI-100               
1 43804U 18099AY  26065.07604762  .00012487  00000+0  48945-3 0  9991
2 43804  97.4322 125.9744 0008923 284.6746  75.3503 15.25873046397686
AL-FARABI 2             
1 43805U 18099AZ  26065.16831214  .00144775  00000+0  13518-2 0  9999
2 43805  97.4108 140.8106 0004575 223.4966 136.5934 15.66833859398807
CENTAURI-1              
1 43809U 18099BD  26065.09323592  .00007079  00000+0  37969-3 0  9992
2 43809  97.4362 119.0389 0013505 331.3068  28.7420 15.15188899396888
GLOBAL-2                
1 43812U 18099BG  26065.11645653  .00004143  00000+0  27298-3 0  9997
2 43812  97.3694 105.8908 0007018 138.3670 221.8094 15.08012941396378
SEAHAWK-1               
1 43820U 18099BQ  26065.10820888  .00010307  00000+0  46831-3 0  9993
2 43820  97.4099 119.2289 0007228 317.4426  42.6249 15.20929653396855
SAUDISAT 5A             
1 43831U 18102A   26065.31621400  .00006876  00000+0  26271-3 0  9994
2 43831  97.3192 128.8992 0011187 133.1227 227.0950 15.26877906399971
SAUDISAT 5B             
1 43833U 18102C   26065.28867992  .00006147  00000+0  23295-3 0  9994
2 43833  97.3289 131.7582 0011856 135.6325 224.5867 15.27188538400088
2018-102D               
1 43834U 18102D   26065.27590299  .00044374  00000+0  64219-3 0  9992
2 43834  97.3490 150.6963 0005429  89.8881 270.2996 15.55762762401194
