[{"OBJECT_NAME":"SNUSAT-2","OBJECT_ID":"2018-099AA","EPOCH":"2026-03-06T02:41:34.771200","MEAN_MOTION":15.20081838,"ECCENTRICITY":0.00091592,"INCLINATION":97.4198,"RA_OF_ASC_NODE":120.1356,"ARG_OF_PERICENTER":300.1895,"MEAN_ANOMALY":59.8432,"EPHEMERIS_TYPE":0,"CLASSIFICATION_TYPE":"U","NORAD_CAT_ID":43782,"ELEMENT_SET_NO":999,"REV_AT_EPOCH":39736,"BSTAR":0.00044044103,"MEAN_MOTION_DOT":9.455e-5,"MEAN_MOTION_DDOT":0},{"OBJECT_NAME":"SNUGLITE","OBJECT_ID":"2018-099AC","EPOCH":"2026-03-06T01:31:34.260672","MEAN_MOTION":15.24713538,"ECCENTRICITY":0.00013849,"INCLINATION":97.4008,"RA_OF_ASC_NODE":120.4673,"ARG_OF_PERICENTER":306.9456,"MEAN_ANOMALY":53.1654,"EPHEMERIS_TYPE":0,"CLASSIFICATION_TYPE":"U","NORAD_CAT_ID":43784,"ELEMENT_SET_NO":999,"REV_AT_EPOCH":39759,"BSTAR":0.00053119149,"MEAN_MOTION_DOT":0.00013082,"MEAN_MOTION_DDOT":0},{"OBJECT_NAME":"ITASAT","OBJECT_ID":"2018-099AE","EPOCH":"2026-03-06T01:58:27.701184","MEAN_MOTION":15.17603175,"ECCENTRICITY":0.00125631,"INCLINATION":97.4167,"RA_OF_ASC_NODE":118.6838,"ARG_OF_PERICENTER":359.4146,"MEAN_ANOMALY":0.7071,"EPHEMERIS_TYPE":0,"CLASSIFICATION_TYPE":"U","NORAD_CAT_ID":43786,"ELEMENT_SET_NO":999,"REV_AT_EPOCH":39726,"BSTAR":0.00042271882,"MEAN_MOTION_DOT":8.451e-5,"MEAN_MOTION_DDOT":0},{"OBJECT_NAME":"EAGLET-I","OBJECT_ID":"2018-099AJ","EPOCH":"2026-03-06T02:43:07.361760","MEAN_MOTION":15.12061979,"ECCENTRICITY":0.00108586,"INCLINATION":97.4373,"RA_OF_ASC_NODE":117.5014,"ARG_OF_PERICENTER":350.1736,"MEAN_ANOMALY":9.9281,"EPHEMERIS_TYPE":0,"CLASSIFICATION_TYPE":"U","NORAD_CAT_ID":43790,"ELEMENT_SET_NO":999,"REV_AT_EPOCH":39675,"BSTAR":0.00026129759,"MEAN_MOTION_DOT":4.436e-5,"MEAN_MOTION_DDOT":0},{"OBJECT_NAME":"ESEO","OBJECT_ID":"2018-099AL","EPOCH":"2026-03-06T01:29:49.769376","MEAN_MOTION":15.03891125,"ECCENTRICITY":0.00114454,"INCLINATION":97.4107,"RA_OF_ASC_NODE":106.8163,"ARG_OF_PERICENTER":330.0935,"MEAN_ANOMALY":29.9636,"EPHEMERIS_TYPE":0,"CLASSIFICATION_TYPE":"U","NORAD_CAT_ID":43792,"ELEMENT_SET_NO":999,"REV_AT_EPOCH":39630,"BSTAR":0.00021458572,"MEAN_MOTION_DOT":2.901e-5,"MEAN_MOTION_DDOT":0},{"OBJECT_NAME":"THEA","OBJECT_ID":"2018-099AQ","EPOCH":"2026-03-06T03:35:33.549504","MEAN_MOTION":15.31268454,"ECCENTRICITY":0.00066567,"INCLINATION":97.455,"RA_OF_ASC_NODE":134.0703,"ARG_OF_PERICENTER":291.5601,"MEAN_ANOMALY":68.493,"EPHEMERIS_TYPE":0,"CLASSIFICATION_TYPE":"U","NORAD_CAT_ID":43796,"ELEMENT_SET_NO":999,"REV_AT_EPOCH":39690,"BSTAR":0.00069904888,"MEAN_MOTION_DOT":0.00021082,"MEAN_MOTION_DDOT":0},{"OBJECT_NAME":"ASTROCAST 0.1","OBJECT_ID":"2018-099AS","EPOCH":"2026-03-06T03:59:21.259392","MEAN_MOTION":15.42709353,"ECCENTRICITY":0.00053701,"INCLINATION":97.4465,"RA_OF_ASC_NODE":140.945,"ARG_OF_PERICENTER":222.3358,"MEAN_ANOMALY":137.7476,"EPHEMERIS_TYPE":0,"CLASSIFICATION_TYPE":"U","NORAD_CAT_ID":43798,"ELEMENT_SET_NO":999,"REV_AT_EPOCH":39851,"BSTAR":0.00075578797,"MEAN_MOTION_DOT":0.0003301,"MEAN_MOTION_DDOT":0},{"OBJECT_NAME":"JY1SAT (JO-97)","OBJECT_ID":"2018-099AX","EPOCH":"2026-03-06T03:43:26.004576","MEAN_MOTION":15.30136509,"ECCENTRICITY":0.00046418,"INCLINATION":97.4257,"RA_OF_ASC_NODE":127.8319,"ARG_OF_PERICENTER":273.925,"MEAN_ANOMALY":86.1459,"EPHEMERIS_TYPE":0,"CLASSIFICATION_TYPE":"U","NORAD_CAT_ID":43803,"ELEMENT_SET_NO":999,"REV_AT_EPOCH":39785,"BSTAR":0.00062230926,"MEAN_MOTION_DOT":0.000181,"MEAN_MOTION_DDOT":0},{"OBJECT_NAME":"SUOMI-100","OBJECT_ID":"2018-099AY","EPOCH":"2026-03-06T01:49:30.514368","MEAN_MOTION":15.25873046,"ECCENTRICITY":0.00089236,"INCLINATION":97.4322,"RA_OF_ASC_NODE":125.9744,"ARG_OF_PERICENTER":284.6746,"MEAN_ANOMALY":75.3503,"EPHEMERIS_TYPE":0,"CLASSIFICATION_TYPE":"U","NORAD_CAT_ID":43804,"ELEMENT_SET_NO":999,"REV_AT_EPOCH":39768,"BSTAR":0.0004894506,"MEAN_MOTION_DOT":0.00012487,"MEAN_MOTION_DDOT":0},{"OBJECT_NAME":"AL-FARABI 2","OBJECT_ID":"2018-099AZ","EPOCH":"2026-03-06T04:02:22.168896","MEAN_MOTION":15.66833859,"ECCENTRICITY":0.00045756,"INCLINATION":97.4108,"RA_OF_ASC_NODE":140.8106,"ARG_OF_PERICENTER":223.4966,"MEAN_ANOMALY":136.5934,"EPHEMERIS_TYPE":0,"CLASSIFICATION_TYPE":"U","NORAD_CAT_ID":43805,"ELEMENT_SET_NO":999,"REV_AT_EPOCH":39880,"BSTAR":0.0013517752,"MEAN_MOTION_DOT":0.00144775,"MEAN_MOTION_DDOT":0},{"OBJECT_NAME":"CENTAURI-1","OBJECT_ID":"2018-099BD","EPOCH":"2026-03-06T02:14:15.583488","MEAN_MOTION":15.15188899,"ECCENTRICITY":0.00135058,"INCLINATION":97.4362,"RA_OF_ASC_NODE":119.0389,"ARG_OF_PERICENTER":331.3068,"MEAN_ANOMALY":28.742,"EPHEMERIS_TYPE":0,"CLASSIFICATION_TYPE":"U","NORAD_CAT_ID":43809,"ELEMENT_SET_NO":999,"REV_AT_EPOCH":39688,"BSTAR":0.00037969322,"MEAN_MOTION_DOT":7.079e-5,"MEAN_MOTION_DDOT":0},{"OBJECT_NAME":"GLOBAL-2","OBJECT_ID":"2018-099BG","EPOCH":"2026-03-06T02:47:41.844192","MEAN_MOTION":15.08012941,"ECCENTRICITY":0.00070185,"INCLINATION":97.3694,"RA_OF_ASC_NODE":105.8908,"ARG_OF_PERICENTER":138.367,"MEAN_ANOMALY":221.8094,"EPHEMERIS_TYPE":0,"CLASSIFICATION_TYPE":"U","NORAD_CAT_ID":43812,"ELEMENT_SET_NO":999,"REV_AT_EPOCH":39637,"BSTAR":0.0002729776,"MEAN_MOTION_DOT":4.143e-5,"MEAN_MOTION_DDOT":0},{"OBJECT_NAME":"SEAHAWK-1","OBJECT_ID":"2018-099BQ","EPOCH":"2026-03-06T02:35:49.247232","MEAN_MOTION":15.20929653,"ECCENTRICITY":0.0007228,"INCLINATION":97.4099,"RA_OF_ASC_NODE":119.2289,"ARG_OF_PERICENTER":317.4426,"MEAN_ANOMALY":42.6249,"EPHEMERIS_TYPE":0,"CLASSIFICATION_TYPE":"U","NORAD_CAT_ID":43820,"ELEMENT_SET_NO":999,"REV_AT_EPOCH":39685,"BSTAR":0.00046830842,"MEAN_MOTION_DOT":0.00010307,"MEAN_MOTION_DDOT":0},{"OBJECT_NAME":"SAUDISAT 5A","OBJECT_ID":"2018-102A","EPOCH":"2026-03-06T07:35:20.889600","MEAN_MOTION":15.26877906,"ECCENTRICITY":0.00111874,"INCLINATION":97.3192,"RA_OF_ASC_NODE":128.8992,"ARG_OF_PERICENTER":133.1227,"MEAN_ANOMALY":227.095,"EPHEMERIS_TYPE":0,"CLASSIFICATION_TYPE":"U","NORAD_CAT_ID":43831,"ELEMENT_SET_NO":999,"REV_AT_EPOCH":39997,"BSTAR":0.00026270723,"MEAN_MOTION_DOT":6.876e-5,"MEAN_MOTION_DDOT":0},{"OBJECT_NAME":"SAUDISAT 5B","OBJECT_ID":"2018-102C","EPOCH":"2026-03-06T06:55:41.945088","MEAN_MOTION":15.27188538,"ECCENTRICITY":0.00118564,"INCLINATION":97.3289,"RA_OF_ASC_NODE":131.7582,"ARG_OF_PERICENTER":135.6325,"MEAN_ANOMALY":224.5867,"EPHEMERIS_TYPE":0,"CLASSIFICATION_TYPE":"U","NORAD_CAT_ID":43833,"ELEMENT_SET_NO":999,"REV_AT_EPOCH":40008,"BSTAR":0.00023294601,"MEAN_MOTION_DOT":6.147e-5,"MEAN_MOTION_DDOT":0},{"OBJECT_NAME":"2018-102D","OBJECT_ID":"2018-102D","EPOCH":"2026-03-06T06:37:18.018336","MEAN_MOTION":15.55762762,"ECCENTRICITY":0.0005429,"INCLINATION":97.349,"RA_OF_ASC_NODE":150.6963,"ARG_OF_PERICENTER":89.8881,"MEAN_ANOMALY":270.2996,"EPHEMERIS_TYPE":0,"CLASSIFICATION_TYPE":"U","NORAD_CAT_ID":43834,"ELEMENT_SET_NO":999,"REV_AT_EPOCH":40119,"BSTAR":0.00064219058,"MEAN_MOTION_DOT":0.00044374,"MEAN_MOTION_DDOT":0}]
